     2              NAVIGATION DATA                         RINEX VERSION / TYPE
CCRINEXN V1.6.0 UX  CDDIS               11-SEP-08 02:51     PGM / RUN BY / DATE 
IGS BROADCAST EPHEMERIS FILE                                COMMENT             
    0.7451E-08  0.1490E-07 -0.5960E-07 -0.1192E-06          ION ALPHA           
    0.7987E+05  0.1638E+05 -0.1311E+06 -0.1311E+06          ION BETA            
    0.931322574616E-09 0.444089209850E-14   405504     1496 DELTA-UTC: A0,A1,T,W
    14                                                      LEAP SECONDS        
                                                            END OF HEADER       
 8 08  9 10  6  0  0.0-0.169365201145E-03-0.159161572810E-11 0.000000000000E+00
    0.910000000000E+02-0.434375000000E+02 0.405088302125E-08-0.190884612578E+01
   -0.234320759773E-05 0.105508574052E-01 0.392459332943E-05 0.515372285080E+04
    0.280800000000E+06-0.126659870148E-06 0.115394380929E+01-0.162050127983E-06
    0.984752175178E+00 0.317218750000E+03 0.290338591048E+01-0.799783314185E-08
   -0.110718897601E-10 0.100000000000E+01 0.149600000000E+04 0.000000000000E+00
    0.200000000000E+01 0.000000000000E+00-0.372529029846E-08 0.910000000000E+02
    0.273600000000E+06 0.000000000000E+00 0.000000000000E+00 0.000000000000E+00
 9 08  9 10  6  0  0.0 0.142212957144E-04 0.193267624127E-11 0.000000000000E+00
    0.650000000000E+02-0.488437500000E+02 0.418946022212E-08-0.227258670899E+01
   -0.227242708206E-05 0.201635382837E-01 0.277347862720E-05 0.515366648674E+04
    0.280800000000E+06 0.232830643654E-06 0.106303724306E+01 0.689178705215E-07
    0.972629182252E+00 0.329406250000E+03 0.144055067333E+01-0.783782647693E-08
   -0.325013538118E-10 0.100000000000E+01 0.149600000000E+04 0.000000000000E+00
    0.240000000000E+01 0.000000000000E+00-0.558793544769E-08 0.650000000000E+02
    0.273606000000E+06 0.400000000000E+01 0.000000000000E+00 0.000000000000E+00
10 08  9 10  6  0  0.0-0.468874350190E-05-0.341060513165E-12 0.000000000000E+00
    0.460000000000E+02 0.402500000000E+02 0.456376152756E-08 0.143435989953E+01
    0.227987766266E-05 0.800351821818E-02 0.866875052452E-05 0.515370242691E+04
    0.280800000000E+06-0.428408384323E-07-0.969829816825E+00 0.158324837685E-06
    0.961967087116E+00 0.214406250000E+03 0.555936782598E+00-0.803890628129E-08
   -0.326085011321E-09 0.100000000000E+01 0.149600000000E+04 0.000000000000E+00
    0.280000000000E+01 0.000000000000E+00-0.232830643654E-08 0.460000000000E+02
    0.273618000000E+06 0.400000000000E+01 0.000000000000E+00 0.000000000000E+00
11 08  9 10  6  0  0.0 0.201212242246E-04-0.682121026330E-12 0.000000000000E+00
    0.850000000000E+02 0.116875000000E+02 0.643812531662E-08-0.145906708201E+01
    0.495463609695E-06 0.845711876173E-02 0.504776835442E-05 0.515363861084E+04
    0.280800000000E+06 0.156462192535E-06-0.223998548158E+01-0.115483999252E-06
    0.890571886477E+00 0.239906250000E+03 0.611295668358E+00-0.886751222462E-08
    0.109290266664E-09 0.100000000000E+01 0.149600000000E+04 0.000000000000E+00
    0.200000000000E+01 0.000000000000E+00-0.121071934700E-07 0.850000000000E+02
    0.273600000000E+06 0.000000000000E+00 0.000000000000E+00 0.000000000000E+00
12 08  9 10  6  0  0.0-0.351537484676E-03 0.147792889038E-11 0.000000000000E+00
    0.570000000000E+02-0.854062500000E+02 0.412160025262E-08-0.101716878233E+01
   -0.432878732681E-05 0.315464439336E-02 0.912509858608E-05 0.515353547287E+04
    0.280800000000E+06-0.121071934700E-06 0.214946600785E+01 0.521540641785E-07
    0.964679460120E+00 0.205062500000E+03-0.861244454677E+00-0.785282710177E-08
    0.907180644858E-10 0.100000000000E+01 0.149600000000E+04 0.000000000000E+00
    0.200000000000E+01 0.000000000000E+00-0.116415321827E-07 0.570000000000E+02
    0.273618000000E+06 0.400000000000E+01 0.000000000000E+00 0.000000000000E+00
13 08  9 10  6  0  0.0 0.270608812571E-03 0.125055521494E-11 0.000000000000E+00
    0.660000000000E+02 0.686875000000E+02 0.373622705742E-08 0.107950111915E+01
    0.343285501003E-05 0.371938815806E-02 0.589713454246E-05 0.515358180618E+04
    0.280800000000E+06-0.108033418655E-06 0.101854455584E+00-0.149011611938E-07
    0.995745682702E+00 0.283687500000E+03 0.154748084608E+01-0.776782356103E-08
    0.660741808263E-10 0.100000000000E+01 0.149600000000E+04 0.000000000000E+00
    0.200000000000E+01 0.000000000000E+00-0.111758708954E-07 0.660000000000E+02
    0.276720000000E+06 0.000000000000E+00 0.000000000000E+00 0.000000000000E+00
14 08  9 10  6  0  0.0-0.221616122872E-03 0.466116034659E-11 0.000000000000E+00
    0.780000000000E+02 0.807500000000E+02 0.397052253106E-08 0.859242951604E+00
    0.423751771450E-05 0.414486858062E-02 0.566057860851E-05 0.515373439407E+04
    0.280800000000E+06-0.372529029846E-08 0.839447087941E-01 0.465661287308E-07
    0.989421855037E+00 0.286562500000E+03-0.218531471883E+01-0.799033282943E-08
    0.535736601294E-10 0.100000000000E+01 0.149600000000E+04 0.000000000000E+00
    0.340000000000E+01 0.000000000000E+00-0.931322574615E-08 0.780000000000E+02
    0.273606000000E+06 0.400000000000E+01 0.000000000000E+00 0.000000000000E+00
15 08  9 10  6  0  0.0-0.174769666046E-03-0.648014975013E-11 0.000000000000E+00
    0.105000000000E+03 0.675937500000E+02 0.463840749401E-08 0.172996951462E+01
    0.348314642906E-05 0.856912462041E-03 0.528991222382E-05 0.515370111084E+04
    0.280800000000E+06 0.204890966415E-07 0.396277355914E-01-0.391155481338E-07
    0.957707647522E+00 0.272343750000E+03-0.119248004269E+01-0.818784105644E-08
   -0.500020827875E-11 0.100000000000E+01 0.149600000000E+04 0.000000000000E+00
    0.280000000000E+01 0.000000000000E+00-0.977888703346E-08 0.105000000000E+03
    0.276648000000E+06 0.400000000000E+01 0.000000000000E+00 0.000000000000E+00
16 08  9 10  6  0  0.0 0.107750762254E-03-0.204636307899E-11 0.000000000000E+00
    0.510000000000E+02-0.942187500000E+02 0.409767064724E-08 0.266225275774E+01
   -0.478699803352E-05 0.472234492190E-02 0.887364149094E-05 0.515367313194E+04
    0.280800000000E+06-0.186264514923E-08 0.216601345461E+01 0.502914190292E-07
    0.966313589354E+00 0.213125000000E+03-0.405599387368E+00-0.775675168541E-08
   -0.107147320530E-11 0.100000000000E+01 0.149600000000E+04 0.000000000000E+00
    0.200000000000E+01 0.000000000000E+00-0.977888703346E-08 0.510000000000E+02
    0.273618000000E+06 0.400000000000E+01 0.000000000000E+00 0.000000000000E+00
18 08  9 10  6  0  0.0-0.135541893542E-03 0.409272615798E-11 0.000000000000E+00
    0.600000000000E+02 0.506562500000E+02 0.467055169008E-08 0.282290554969E+01
    0.254623591900E-05 0.985765585210E-02 0.905059278011E-05 0.515372194290E+04
    0.280800000000E+06-0.707805156708E-07-0.960471951192E+00-0.152736902237E-06
    0.946051938426E+00 0.197500000000E+03-0.246706198553E+01-0.788282835144E-08
   -0.299655338991E-09 0.100000000000E+01 0.149600000000E+04 0.000000000000E+00
    0.240000000000E+01 0.000000000000E+00-0.107102096081E-07 0.600000000000E+02
    0.273606000000E+06 0.400000000000E+01 0.000000000000E+00 0.000000000000E+00
19 08  9 10  6  0  0.0 0.353469513357E-04 0.227373675443E-12 0.000000000000E+00
    0.690000000000E+02 0.234375000000E+01 0.458519099161E-08 0.967178320231E+00
    0.141561031342E-06 0.489486311562E-02 0.814162194729E-05 0.515372652245E+04
    0.280800000000E+06 0.147148966789E-06-0.301928612635E+01-0.298023223877E-07
    0.957801612213E+00 0.219250000000E+03-0.499718817215E+00-0.794354516626E-08
    0.376801409577E-09 0.100000000000E+01 0.149600000000E+04 0.000000000000E+00
    0.200000000000E+01 0.000000000000E+00-0.144354999065E-07 0.690000000000E+02
    0.273600000000E+06 0.000000000000E+00 0.000000000000E+00 0.000000000000E+00
20 08  9 10  6  0  0.0 0.105060636997E-03-0.102318153950E-11 0.000000000000E+00
    0.850000000000E+02 0.331562500000E+02 0.482520098899E-08 0.288327320363E+01
    0.171363353729E-05 0.351064605638E-02 0.881031155586E-05 0.515377627182E+04
    0.280800000000E+06 0.279396772385E-07-0.101414831731E+01-0.540167093277E-07
    0.945558673171E+00 0.199562500000E+03 0.136668027529E+01-0.803854912355E-08
   -0.289654922433E-09 0.100000000000E+01 0.149600000000E+04 0.000000000000E+00
    0.200000000000E+01 0.000000000000E+00-0.651925802231E-08 0.850000000000E+02
    0.273600000000E+06 0.000000000000E+00 0.000000000000E+00 0.000000000000E+00
21 08  9 10  6  0  0.0 0.511994585395E-04-0.147792889038E-11 0.000000000000E+00
    0.740000000000E+02 0.117812500000E+02 0.533022202514E-08-0.226285208343E+01
    0.273808836937E-06 0.142740998417E-01 0.632368028164E-05 0.515368346405E+04
    0.280800000000E+06 0.113621354103E-06-0.201931964703E+01-0.247731804848E-06
    0.935346445825E+00 0.246156250000E+03-0.267952954669E+01-0.824070040111E-08
    0.375015620906E-10 0.100000000000E+01 0.149600000000E+04 0.000000000000E+00
    0.240000000000E+01 0.000000000000E+00-0.116415321827E-07 0.740000000000E+02
    0.273606000000E+06 0.400000000000E+01 0.000000000000E+00 0.000000000000E+00
22 08  9 10  6  0  0.0 0.211060047150E-03-0.113686837722E-12 0.000000000000E+00
    0.350000000000E+02 0.481875000000E+02 0.489484674716E-08 0.160012039096E+01
    0.250153243542E-05 0.513115117792E-02 0.924430787563E-05 0.515366949272E+04
    0.280800000000E+06-0.109896063805E-06-0.954211138724E+00-0.141561031342E-06
    0.943701963878E+00 0.193062500000E+03-0.183001812803E+01-0.812819571483E-08
   -0.252153360342E-09 0.100000000000E+01 0.149600000000E+04 0.000000000000E+00
    0.240000000000E+01 0.000000000000E+00-0.176951289177E-07 0.350000000000E+02
    0.273606000000E+06 0.400000000000E+01 0.000000000000E+00 0.000000000000E+00
